{"type": "FeatureCollection", "features": [ {"type": "Feature", "properties": {"norad_id": 30879, "name": "FENGYUN 1C DEB", "group": "fengyun-1c-debris", "lat": -79.75129056317977, "lon": -75.21703710441027, "alt_km": 559.8299383362546, "timestamp": "2025-12-26T11:25:45.473322+00:00", "meta": {"OBJECT_NAME": "FENGYUN 1C DEB", "OBJECT_ID": "1999-025AXR", "EPOCH": "2025-12-23T13:28:40.753056", "MEAN_MOTION": 14.6794774, "ECCENTRICITY": 0.02000253, "INCLINATION": 99.3515, "RA_OF_ASC_NODE": 215.753, "ARG_OF_PERICENTER": 246.8904, "MEAN_ANOMALY": 111.1104, "EPHEMERIS_TYPE": 0, "CLASSIFICATION_TYPE": "U", "NORAD_CAT_ID": 30879, "ELEMENT_SET_NO": 999, "REV_AT_EPOCH": 62098, "BSTAR": 0.0043903952, "MEAN_MOTION_DOT": 0.0003413, "MEAN_MOTION_DDOT": 0}, "tle": {"line1": "1 30879U 99025AXR 25357.56158279  .00034130  00000+0  43904-2 0  9999", "line2": "2 30879  99.3515 215.7530 0200025 246.8904 111.1104 14.67947740620989"}}, "geometry": {"type": "Point", "coordinates": [-75.21703710441027, -79.75129056317977]}}, {"type": "Feature", "properties": {"norad_id": 30880, "name": "FENGYUN 1C DEB", "group": "fengyun-1c-debris", "lat": 16.573718882649523, "lon": -105.00120672679105, "alt_km": 807.9854564890074, "timestamp": "2025-12-26T11:25:45.473331+00:00", "meta": {"OBJECT_NAME": "FENGYUN 1C DEB", "OBJECT_ID": "1999-025AXS", "EPOCH": "2025-12-26T03:55:53.203008", "MEAN_MOTION": 14.25677477, "ECCENTRICITY": 0.002136, "INCLINATION": 98.7935, "RA_OF_ASC_NODE": 72.0451, "ARG_OF_PERICENTER": 69.2663, "MEAN_ANOMALY": 291.0803, "EPHEMERIS_TYPE": 0, "CLASSIFICATION_TYPE": "U", "NORAD_CAT_ID": 30880, "ELEMENT_SET_NO": 999, "REV_AT_EPOCH": 96905, "BSTAR": 0.0012492, "MEAN_MOTION_DOT": 2.925e-05, "MEAN_MOTION_DDOT": 0}, "tle": {"line1": "1 30880U 99025AXS 25360.16381022  .00002925  00000+0  12492-2 0  9990", "line2": "2 30880  98.7935  72.0451 0021360  69.2663 291.0803 14.25677477969057"}}, "geometry": {"type": "Point", "coordinates": [-105.00120672679105, 16.573718882649523]}}, {"type": "Feature", "properties": {"norad_id": 30882, "name": "FENGYUN 1C DEB", "group": "fengyun-1c-debris", "lat": 24.62610500917626, "lon": -120.52253430701856, "alt_km": 705.7277185919911, "timestamp": "2025-12-26T11:25:45.473340+00:00", "meta": {"OBJECT_NAME": "FENGYUN 1C DEB", "OBJECT_ID": "1999-025AXU", "EPOCH": "2025-12-24T23:12:23.435424", "MEAN_MOTION": 14.86928182, "ECCENTRICITY": 0.01519081, "INCLINATION": 97.9405, "RA_OF_ASC_NODE": 54.3, "ARG_OF_PERICENTER": 0.8469, "MEAN_ANOMALY": 359.2975, "EPHEMERIS_TYPE": 0, "CLASSIFICATION_TYPE": "U", "NORAD_CAT_ID": 30882, "ELEMENT_SET_NO": 999, "REV_AT_EPOCH": 99836, "BSTAR": 0.00097166747, "MEAN_MOTION_DOT": 0.00010681, "MEAN_MOTION_DDOT": 0}, "tle": {"line1": "1 30882U 99025AXU 25358.96693791  .00010681  00000+0  97167-3 0  9997", "line2": "2 30882  97.9405  54.3000 0151908   0.8469 359.2975 14.86928182998364"}}, "geometry": {"type": "Point", "coordinates": [-120.52253430701856, 24.62610500917626]}}, {"type": "Feature", "properties": {"norad_id": 30883, "name": "FENGYUN 1C DEB", "group": "fengyun-1c-debris", "lat": -25.160440808929096, "lon": -147.26489301474743, "alt_km": 779.5209393345804, "timestamp": "2025-12-26T11:25:45.473350+00:00", "meta": {"OBJECT_NAME": "FENGYUN 1C DEB", "OBJECT_ID": "1999-025AXV", "EPOCH": "2025-12-24T23:22:40.357344", "MEAN_MOTION": 14.14558577, "ECCENTRICITY": 0.01125154, "INCLINATION": 98.3603, "RA_OF_ASC_NODE": 35.2889, "ARG_OF_PERICENTER": 178.5772, "MEAN_ANOMALY": 300.9033, "EPHEMERIS_TYPE": 0, "CLASSIFICATION_TYPE": "U", "NORAD_CAT_ID": 30883, "ELEMENT_SET_NO": 999, "REV_AT_EPOCH": 97090, "BSTAR": 0.00017419285, "MEAN_MOTION_DOT": 3.16e-06, "MEAN_MOTION_DDOT": 0}, "tle": {"line1": "1 30883U 99025AXV 25358.97407821  .00000316  00000+0  17419-3 0  9992", "line2": "2 30883  98.3603  35.2889 0112515 178.5772 300.9033 14.14558577970900"}}, "geometry": {"type": "Point", "coordinates": [-147.26489301474743, -25.160440808929096]}}, {"type": "Feature", "properties": {"norad_id": 30884, "name": "FENGYUN 1C DEB", "group": "fengyun-1c-debris", "lat": -17.374688995598103, "lon": 172.80891849920022, "alt_km": 657.6415592621215, "timestamp": "2025-12-26T11:25:45.473359+00:00", "meta": {"OBJECT_NAME": "FENGYUN 1C DEB", "OBJECT_ID": "1999-025AXW", "EPOCH": "2025-12-24T22:40:58.134720", "MEAN_MOTION": 14.73780454, "ECCENTRICITY": 0.0065701, "INCLINATION": 98.8915, "RA_OF_ASC_NODE": 353.9393, "ARG_OF_PERICENTER": 297.3751, "MEAN_ANOMALY": 62.0779, "EPHEMERIS_TYPE": 0, "CLASSIFICATION_TYPE": "U", "NORAD_CAT_ID": 30884, "ELEMENT_SET_NO": 999, "REV_AT_EPOCH": 98841, "BSTAR": 0.0020771, "MEAN_MOTION_DOT": 0.00014021, "MEAN_MOTION_DDOT": 0}, "tle": {"line1": "1 30884U 99025AXW 25358.94511730  .00014021  00000+0  20771-2 0  9997", "line2": "2 30884  98.8915 353.9393 0065701 297.3751  62.0779 14.73780454988417"}}, "geometry": {"type": "Point", "coordinates": [172.80891849920022, -17.374688995598103]}}, {"type": "Feature", "properties": {"norad_id": 30885, "name": "FENGYUN 1C DEB", "group": "fengyun-1c-debris", "lat": 48.3843685614731, "lon": 32.275333229476075, "alt_km": 696.4758177444082, "timestamp": "2025-12-26T11:25:45.473368+00:00", "meta": {"OBJECT_NAME": "FENGYUN 1C DEB", "OBJECT_ID": "1999-025AXX", "EPOCH": "2025-12-24T01:32:45.943296", "MEAN_MOTION": 14.49623199, "ECCENTRICITY": 0.00532152, "INCLINATION": 99.0262, "RA_OF_ASC_NODE": 199.387, "ARG_OF_PERICENTER": 184.9579, "MEAN_ANOMALY": 326.9163, "EPHEMERIS_TYPE": 0, "CLASSIFICATION_TYPE": "U", "NORAD_CAT_ID": 30885, "ELEMENT_SET_NO": 999, "REV_AT_EPOCH": 97141, "BSTAR": 0.0023689475, "MEAN_MOTION_DOT": 9.227e-05, "MEAN_MOTION_DDOT": 0}, "tle": {"line1": "1 30885U 99025AXX 25358.06442064  .00009227  00000+0  23689-2 0  9997", "line2": "2 30885  99.0262 199.3870 0053215 184.9579 326.9163 14.49623199971410"}}, "geometry": {"type": "Point", "coordinates": [32.275333229476075, 48.3843685614731]}}, {"type": "Feature", "properties": {"norad_id": 30886, "name": "FENGYUN 1C DEB", "group": "fengyun-1c-debris", "lat": 34.90011997487691, "lon": 80.57276607975665, "alt_km": 835.2697927051531, "timestamp": "2025-12-26T11:25:45.473377+00:00", "meta": {"OBJECT_NAME": "FENGYUN 1C DEB", "OBJECT_ID": "1999-025AXY", "EPOCH": "2025-12-26T04:00:10.374336", "MEAN_MOTION": 14.22884748, "ECCENTRICITY": 0.0036375, "INCLINATION": 99.2088, "RA_OF_ASC_NODE": 253.7513, "ARG_OF_PERICENTER": 357.8778, "MEAN_ANOMALY": 2.2238, "EPHEMERIS_TYPE": 0, "CLASSIFICATION_TYPE": "U", "NORAD_CAT_ID": 30886, "ELEMENT_SET_NO": 999, "REV_AT_EPOCH": 96587, "BSTAR": 0.0017474, "MEAN_MOTION_DOT": 3.907e-05, "MEAN_MOTION_DDOT": 0}, "tle": {"line1": "1 30886U 99025AXY 25360.16678674  .00003907  00000+0  17474-2 0  9994", "line2": "2 30886  99.2088 253.7513 0036375 357.8778   2.2238 14.22884748965878"}}, "geometry": {"type": "Point", "coordinates": [80.57276607975665, 34.90011997487691]}}, {"type": "Feature", "properties": {"norad_id": 30887, "name": "FENGYUN 1C DEB", "group": "fengyun-1c-debris", "lat": 62.278558691511215, "lon": -107.57902777943092, "alt_km": 852.6647903384637, "timestamp": "2025-12-26T11:25:45.473390+00:00", "meta": {"OBJECT_NAME": "FENGYUN 1C DEB", "OBJECT_ID": "1999-025AXZ", "EPOCH": "2025-12-25T14:55:28.068096", "MEAN_MOTION": 14.44904054, "ECCENTRICITY": 0.0263634, "INCLINATION": 98.3671, "RA_OF_ASC_NODE": 55.3138, "ARG_OF_PERICENTER": 248.5678, "MEAN_ANOMALY": 108.7208, "EPHEMERIS_TYPE": 0, "CLASSIFICATION_TYPE": "U", "NORAD_CAT_ID": 30887, "ELEMENT_SET_NO": 999, "REV_AT_EPOCH": 98314, "BSTAR": 0.00075332, "MEAN_MOTION_DOT": 3.97e-05, "MEAN_MOTION_DDOT": 0}, "tle": {"line1": "1 30887U 99025AXZ 25359.62185264  .00003970  00000+0  75332-3 0  9990", "line2": "2 30887  98.3671  55.3138 0263634 248.5678 108.7208 14.44904054983147"}}, "geometry": {"type": "Point", "coordinates": [-107.57902777943092, 62.278558691511215]}}, {"type": "Feature", "properties": {"norad_id": 30888, "name": "FENGYUN 1C DEB", "group": "fengyun-1c-debris", "lat": -27.158303032541536, "lon": 157.18755317534067, "alt_km": 599.8932640925459, "timestamp": "2025-12-26T11:25:45.473399+00:00", "meta": {"OBJECT_NAME": "FENGYUN 1C DEB", "OBJECT_ID": "1999-025AYA", "EPOCH": "2025-12-26T04:04:59.816928", "MEAN_MOTION": 14.94175077, "ECCENTRICITY": 0.0083981, "INCLINATION": 99.4849, "RA_OF_ASC_NODE": 341.7386, "ARG_OF_PERICENTER": 108.8618, "MEAN_ANOMALY": 252.1727, "EPHEMERIS_TYPE": 0, "CLASSIFICATION_TYPE": "U", "NORAD_CAT_ID": 30888, "ELEMENT_SET_NO": 999, "REV_AT_EPOCH": 117, "BSTAR": 0.0010689, "MEAN_MOTION_DOT": 0.00012205, "MEAN_MOTION_DDOT": 0}, "tle": {"line1": "1 30888U 99025AYA 25360.17013677  .00012205  00000+0  10689-2 0  9995", "line2": "2 30888  99.4849 341.7386 0083981 108.8618 252.1727 14.94175077  1175"}}, "geometry": {"type": "Point", "coordinates": [157.18755317534067, -27.158303032541536]}}, {"type": "Feature", "properties": {"norad_id": 30891, "name": "FENGYUN 1C DEB", "group": "fengyun-1c-debris", "lat": 81.20734767115395, "lon": -40.55300140644771, "alt_km": 845.2238107590019, "timestamp": "2025-12-26T11:25:45.473408+00:00", "meta": {"OBJECT_NAME": "FENGYUN 1C DEB", "OBJECT_ID": "1999-025AYD", "EPOCH": "2025-12-26T02:35:48.251904", "MEAN_MOTION": 14.05899439, "ECCENTRICITY": 0.0055914, "INCLINATION": 98.7831, "RA_OF_ASC_NODE": 47.323, "ARG_OF_PERICENTER": 150.2644, "MEAN_ANOMALY": 238.3959, "EPHEMERIS_TYPE": 0, "CLASSIFICATION_TYPE": "U", "NORAD_CAT_ID": 30891, "ELEMENT_SET_NO": 999, "REV_AT_EPOCH": 96170, "BSTAR": 0.00056139, "MEAN_MOTION_DOT": 8.89e-06, "MEAN_MOTION_DDOT": 0}, "tle": {"line1": "1 30891U 99025AYD 25360.10819736  .00000889  00000+0  56139-3 0  9998", "line2": "2 30891  98.7831  47.3230 0055914 150.2644 238.3959 14.05899439961708"}}, "geometry": {"type": "Point", "coordinates": [-40.55300140644771, 81.20734767115395]}}]}